ALOS-2                  
1 39766U 14029A   26158.26476847  .00001207  00000+0  16849-3 0  9993
2 39766  97.9211 255.5706 0001679  91.1698 268.9706 14.79467932650112
KAZEOSAT 2              
1 40010U 14033A   26158.26067677  .00001097  00000+0  13299-3 0  9992
2 40010  97.5413 358.3968 0008828   3.3354 356.7920 14.85460542647482
HODOYOSHI-4             
1 40011U 14033B   26158.28420164  .00001739  00000+0  19378-3 0  9996
2 40011  97.5457 343.5846 0023344 342.5749  17.4665 14.88107814647332
DEIMOS-2                
1 40013U 14033D   26158.26880061  .00002116  00000+0  20521-3 0  9994
2 40013  97.5834  33.1052 0002022  60.3798 299.7624 14.93698935636246
HODOYOSHI-3             
1 40015U 14033F   26157.40674962  .00001223  00000+0  14676-3 0  9994
2 40015  97.6410 320.8823 0033610  32.4637 327.8637 14.85366576646028
SPOT 7                  
1 40053U 14034A   26158.25064119  .00000541  00000+0  11965-3 0  9998
2 40053  98.0627 220.9980 0001176  83.5184 276.6151 14.60950067635684
SKYSAT-B                
1 40072U 14037D   26157.63502067  .00001618  00000+0  18297-3 0  9993
2 40072  98.3832 115.9991 0004695 324.8850  35.2055 14.88000738644392
GAOFEN-2                
1 40118U 14049A   26158.24387156  .00000232  00000+0  36917-4 0  9996
2 40118  98.0107 222.4604 0005868 267.1669  92.8871 14.80887096637760
YAOGAN-21               
1 40143U 14053A   26158.26301978  .00008688  00000+0  33771-3 0  9996
2 40143  97.1477 198.9259 0009714 121.7825 238.4362 15.26228233653443
YAOGAN-22               
1 40275U 14063A   26158.14694859 -.00000007  00000+0  10543-3 0  9993
2 40275 100.7713 309.2540 0006117 208.2595 151.8185 13.15530751558499
ASNARO                  
1 40298U 14070A   26158.28040859  .00008844  00000+0  42199-3 0  9994
2 40298  97.3448 234.6635 0004589 199.0717 161.0347 15.19289979642508
YAOGAN-24               
1 40310U 14072A   26158.32155216  .00000539  00000+0  85557-4 0  9999
2 40310  98.1481 295.5768 0012768 298.8037  61.1890 14.76209557622263
CBERS 4                 
1 40336U 14079A   26158.27893169  .00000061  00000+0  35720-4 0  9991
2 40336  98.3530 215.4210 0002046  72.8465 287.2945 14.35506352602532
YAOGAN-26               
1 40362U 14088A   26158.30259551  .00029559  00000+0  58621-3 0  9992
2 40362  97.0648 158.7462 0006694  89.6570 270.5448 15.46959648636174
KOMPSAT-3A              
1 40536U 15014A   26158.25953844  .00024460  00000+0  36070-3 0  9995
2 40536  97.6888 148.8995 0055657 210.6463 149.1535 15.53543205620278
SENTINEL-2A             
1 40697U 15028A   26158.28461618  .00000124  00000+0  63914-4 0  9993
2 40697  98.5679 233.2766 0001066  87.3934 272.7371 14.30821050572319
GAOFEN-8                
1 40701U 15030A   26158.31284803  .00015077  00000+0  31492-3 0  9993
2 40701  97.6915 351.0929 0007968 223.4314 136.6308 15.45587390609929
CARBONITE 1 (CBNT-1)    
1 40718U 15032D   26158.26791378  .00002126  00000+0  26389-3 0  9997
2 40718  97.6509 336.7502 0013837 333.3099  26.7402 14.83558696587877
YAOGAN-27               
1 40878U 15040A   26158.29789146  .00000107  00000+0  39470-3 0  9998
2 40878 100.1156 145.1103 0007447 235.5259 124.5151 13.16070561516361
GAOFEN-9 01             
1 40894U 15047A   26158.27823008  .00001150  00000+0  14737-3 0  9995
2 40894  97.6284 194.4230 0027615 169.4683 190.7116 14.82865509578726
YAOGAN-28               
1 41026U 15064A   26158.29899317  .00007014  00000+0  26471-3 0  9993
2 41026  97.3064 296.7640 0009767 219.4397 140.6132 15.27291077589170
YAOGAN-29               
1 41038U 15069A   26158.32744574  .00000503  00000+0  68482-4 0  9994
2 41038  98.0030 186.9448 0002982  69.4361 290.7172 14.83078237569166
GAOFEN-4                
1 41194U 15083A   26157.79613806 -.00000321  00000+0  00000+0 0  9992
2 41194   0.3301  83.7532 0004358 108.8481  94.9007  1.00269078 38425
JASON-3                 
1 41240U 16002A   26158.21622926 -.00000053  00000+0  35726-4 0  9997
2 41240  66.0390 146.7980 0008592 273.1527  86.8508 12.87627759485964
SENTINEL-3A             
1 41335U 16011A   26157.97760479  .00000115  00000+0  65534-4 0  9998
2 41335  98.6250 225.5074 0001345 104.5544 255.5786 14.26737178536603
ZIYUAN 3-02 (ZY 3-02)   
1 41556U 16033A   26158.25850306  .00005703  00000+0  25694-3 0  9998
2 41556  97.3832 234.2225 0011712 329.1263  30.9283 15.21385820556470
CARTOSAT-2C             
1 41599U 16040A   26158.24683028  .00006029  00000+0  28902-3 0  9994
2 41599  97.4481 218.3612 0009584 162.9254 197.2305 15.19240591552209
