OBJECT_NAME,OBJECT_ID,EPOCH,MEAN_MOTION,ECCENTRICITY,INCLINATION,RA_OF_ASC_NODE,ARG_OF_PERICENTER,MEAN_ANOMALY,EPHEMERIS_TYPE,CLASSIFICATION_TYPE,NORAD_CAT_ID,ELEMENT_SET_NO,REV_AT_EPOCH,BSTAR,MEAN_MOTION_DOT,MEAN_MOTION_DDOT
ALOS-2,2014-029A,2026-06-07T06:21:15.995808,14.79467932,.0001679,97.9211,255.5706,91.1698,268.9706,0,U,39766,999,65011,.16849424E-3,.1207E-4,0
KAZEOSAT 2,2014-033A,2026-06-07T06:15:22.472928,14.85460542,.00088281,97.5413,358.3968,3.3354,356.7920,0,U,40010,999,64748,.13299141E-3,.1097E-4,0
HODOYOSHI-4,2014-033B,2026-06-07T06:49:15.021696,14.88107814,.00233446,97.5457,343.5846,342.5749,17.4665,0,U,40011,999,64733,.19378139E-3,.1739E-4,0
DEIMOS-2,2014-033D,2026-06-07T06:27:04.372704,14.93698935,.00020226,97.5834,33.1052,60.3798,299.7624,0,U,40013,999,63624,.20521332E-3,.2116E-4,0
HODOYOSHI-3,2014-033F,2026-06-06T09:45:43.167168,14.85366576,.00336104,97.6410,320.8823,32.4637,327.8637,0,U,40015,999,64602,.14675705E-3,.1223E-4,0
SPOT 7,2014-034A,2026-06-07T06:00:55.398816,14.60950067,.00011766,98.0627,220.9980,83.5184,276.6151,0,U,40053,999,63568,.11965446E-3,.541E-5,0
SKYSAT-B,2014-037D,2026-06-06T15:14:25.785888,14.88000738,.00046959,98.3832,115.9991,324.8850,35.2055,0,U,40072,999,64439,.18296707E-3,.1618E-4,0
GAOFEN-2,2014-049A,2026-06-07T05:51:10.502784,14.80887096,.00058682,98.0107,222.4604,267.1669,92.8871,0,U,40118,999,63776,.36917119E-4,.232E-5,0
YAOGAN-21,2014-053A,2026-06-07T06:18:44.908992,15.26228233,.00097146,97.1477,198.9259,121.7825,238.4362,0,U,40143,999,65344,.33771481E-3,.8688E-4,0
YAOGAN-22,2014-063A,2026-06-07T03:31:36.358176,13.15530751,.00061168,100.7713,309.2540,208.2595,151.8185,0,U,40275,999,55849,.10543294E-3,-.7E-7,0
ASNARO,2014-070A,2026-06-07T06:43:47.302176,15.19289979,.00045895,97.3448,234.6635,199.0717,161.0347,0,U,40298,999,64250,.42198739E-3,.8844E-4,0
YAOGAN-24,2014-072A,2026-06-07T07:43:02.106624,14.76209557,.00127682,98.1481,295.5768,298.8037,61.1890,0,U,40310,999,62226,.85557337E-4,.539E-5,0
CBERS 4,2014-079A,2026-06-07T06:41:39.698016,14.35506352,.00020467,98.3530,215.4210,72.8465,287.2945,0,U,40336,999,60253,.35720007E-4,.61E-6,0
YAOGAN-26,2014-088A,2026-06-07T07:15:44.252064,15.46959648,.00066948,97.0648,158.7462,89.6570,270.5448,0,U,40362,999,63617,.58620553E-3,.29559E-3,0
KOMPSAT-3A,2015-014A,2026-06-07T06:13:44.121216,15.53543205,.00556573,97.6888,148.8995,210.6463,149.1535,0,U,40536,999,62027,.36070252E-3,.2446E-3,0
SENTINEL-2A,2015-028A,2026-06-07T06:49:50.837952,14.30821050,.00010664,98.5679,233.2766,87.3934,272.7371,0,U,40697,999,57231,.63913994E-4,.124E-5,0
GAOFEN-8,2015-030A,2026-06-07T07:30:30.069792,15.45587390,.00079681,97.6915,351.0929,223.4314,136.6308,0,U,40701,999,60992,.31492382E-3,.15077E-3,0
CARBONITE 1 (CBNT-1),2015-032D,2026-06-07T06:25:47.750592,14.83558696,.00138374,97.6509,336.7502,333.3099,26.7402,0,U,40718,999,58787,.26388832E-3,.2126E-4,0
YAOGAN-27,2015-040A,2026-06-07T07:08:57.822144,13.16070561,.00074478,100.1156,145.1103,235.5259,124.5151,0,U,40878,999,51636,.39469758E-3,.107E-5,0
GAOFEN-9 01,2015-047A,2026-06-07T06:40:39.078912,14.82865509,.00276152,97.6284,194.4230,169.4683,190.7116,0,U,40894,999,57872,.14737351E-3,.115E-4,0
YAOGAN-28,2015-064A,2026-06-07T07:10:33.009888,15.27291077,.00097672,97.3064,296.7640,219.4397,140.6132,0,U,41026,999,58917,.26470586E-3,.7014E-4,0
YAOGAN-29,2015-069A,2026-06-07T07:51:31.311936,14.83078237,.00029828,98.0030,186.9448,69.4361,290.7172,0,U,41038,999,56916,.68482114E-4,.503E-5,0
GAOFEN-4,2015-083A,2026-06-06T19:06:26.328384,1.00269078,.00043587,0.3301,83.7532,108.8481,94.9007,0,U,41194,999,3842,0,-.321E-5,0
JASON-3,2016-002A,2026-06-07T05:11:22.208928,12.87627759,.00085916,66.0390,146.7980,273.1527,86.8508,0,U,41240,999,48596,.35726291E-4,-.53E-6,0
SENTINEL-3A,2016-011A,2026-06-06T23:27:45.054720,14.26737178,.00013452,98.6250,225.5074,104.5544,255.5786,0,U,41335,999,53660,.65533758E-4,.115E-5,0
ZIYUAN 3-02 (ZY 3-02),2016-033A,2026-06-07T06:12:14.664384,15.21385820,.00117125,97.3832,234.2225,329.1263,30.9283,0,U,41556,999,55647,.25694283E-3,.5703E-4,0
CARTOSAT-2C,2016-040A,2026-06-07T05:55:26.136192,15.19240591,.00095845,97.4481,218.3612,162.9254,197.2305,0,U,41599,999,55220,.28902051E-3,.6029E-4,0
